{"type": "FeatureCollection", "features": [ {"type": "Feature", "properties": {"norad_id": 61183, "name": "GSAT0226 (GALILEO 31)", "group": "galileo", "lat": 39.53719801918613, "lon": -98.53238476115196, "alt_km": 23216.580015689146, "timestamp": "2025-12-09T16:56:36.837956+00:00", "meta": {"OBJECT_NAME": "GSAT0226 (GALILEO 31)", "OBJECT_ID": "2024-167B", "EPOCH": "2025-12-09T06:58:53.079168", "MEAN_MOTION": 1.70473461, "ECCENTRICITY": 8.01e-05, "INCLINATION": 55.2404, "RA_OF_ASC_NODE": 226.5307, "ARG_OF_PERICENTER": 119.131, "MEAN_ANOMALY": 36.9899, "EPHEMERIS_TYPE": 0, "CLASSIFICATION_TYPE": "U", "NORAD_CAT_ID": 61183, "ELEMENT_SET_NO": 999, "REV_AT_EPOCH": 761, "BSTAR": 0, "MEAN_MOTION_DOT": 1.2e-07, "MEAN_MOTION_DDOT": 0}, "tle": {"line1": "1 61183U 24167B   25343.29089212  .00000012  00000+0  00000+0 0  9990", "line2": "2 61183  55.2404 226.5307 0000801 119.1310  36.9899  1.70473461  7612"}}, "geometry": {"type": "Point", "coordinates": [-98.53238476115196, 39.53719801918613]}}]}